STARLINK-2149
1 17738C 21017S   21326.12795666 -.00016702  00000-0 -11186-2 0  3267
2 17738  53.0547  43.1754 0005697  10.0898 229.0363 15.06416106    18
